IRIDIUM 135             
1 43070U 17083A   26158.17466648 -.00000015  00000+0 -12511-4 0  9998
2 43070  86.3956 326.2029 0002099  91.0992 269.0444 14.34217503442714
IRIDIUM 138             
1 43071U 17083B   26158.20003758  .00000255  00000+0  83836-4 0  9994
2 43071  86.3972 325.8861 0002409  89.0490 271.0982 14.34217689442701
IRIDIUM 116             
1 43072U 17083C   26158.16832288  .00000245  00000+0  80390-4 0  9999
2 43072  86.3956 326.1910 0001876  93.1118 267.0293 14.34217644442737
IRIDIUM 130             
1 43073U 17083D   26158.20637885  .00000242  00000+0  79331-4 0  9991
2 43073  86.3966 326.4501 0001998  87.1530 272.9894 14.34217734442680
IRIDIUM 151             
1 43074U 17083E   26158.18100852  .00000165  00000+0  51846-4 0  9993
2 43074  86.3958 326.2437 0002111  92.0346 268.1092 14.34218009442702
IRIDIUM 134             
1 43075U 17083F   26158.00975875  .00000077  00000+0  20539-4 0  9997
2 43075  86.3962 326.3232 0002086  87.9738 272.1696 14.34218265442643
IRIDIUM 137             
1 43076U 17083G   26158.16198036  .00000104  00000+0  29918-4 0  9992
2 43076  86.3960 326.3517 0001957 100.6324 259.5092 14.34217614442734
IRIDIUM 141             
1 43077U 17083H   26158.22540745 -.00000033  00000+0 -18980-4 0  9998
2 43077  86.3953 326.1569 0002090  90.5781 269.5654 14.34217085442743
IRIDIUM 153             
1 43078U 17083J   26158.10781797  .00000038  00000+0  64028-5 0  9998
2 43078  86.3955 294.6859 0002364  90.6401 269.5066 14.34217682443832
IRIDIUM 131             
1 43079U 17083K   26158.21272146 -.00000037  00000+0 -20205-4 0  9993
2 43079  86.3959 326.3475 0002091  92.1024 268.0412 14.34217400442677
IRIDIUM 144             
1 43249U 18030A   26157.13739986  .00000122  00000+0  36490-4 0  9991
2 43249  86.3951 295.0216 0002033  96.9096 263.2331 14.34217715428557
IRIDIUM 149             
1 43250U 18030B   26158.12050286  .00000054  00000+0  12132-4 0  9993
2 43250  86.3950 294.5773 0002260  93.1733 266.9721 14.34217773428714
IRIDIUM 157             
1 43251U 18030C   26158.13953045  .00000015  00000+0 -17364-5 0  9991
2 43251  86.3949 294.6223 0002088  93.5449 266.5986 14.34217494428696
IRIDIUM 140             
1 43252U 18030D   26158.08878962  .00000042  00000+0  79884-5 0  9994
2 43252  86.3952 294.6559 0002160  92.0767 268.0676 14.34217704428744
IRIDIUM 145             
1 43253U 18030E   26158.07610323  .00000081  00000+0  21756-4 0  9996
2 43253  86.3949 294.6335 0001838  96.4113 263.7292 14.34217502428671
IRIDIUM 146             
1 43254U 18030F   26158.12684515  .00000007  00000+0 -45540-5 0  9994
2 43254  86.3948 294.6246 0001972  94.8367 265.3054 14.34217403428690
IRIDIUM 148             
1 43255U 18030G   26158.09513144 -.00000002  00000+0 -79085-5 0  9997
2 43255  86.3950 294.6809 0002075  97.2182 262.9250 14.34217490428727
IRIDIUM 142             
1 43256U 18030H   26158.13318734  .00000045  00000+0  90351-5 0  9995
2 43256  86.3949 294.5542 0002037  96.0806 264.0622 14.34217626428690
IRIDIUM 150             
1 43257U 18030J   26158.10147503  .00000042  00000+0  78523-5 0  9991
2 43257  86.3953 294.6836 0002157  91.8546 268.2896 14.34217652428711
IRIDIUM 143             
1 43258U 18030K   26158.08244723  .00000036  00000+0  59323-5 0  9991
2 43258  86.3956 294.7836 0002096  93.8419 266.3017 14.34217539428649
IRIDIUM 161             
1 43478U 18047C   26157.56137485  .00000354  00000+0  99146-4 0  9990
2 43478  86.4485  92.9125 0002580  91.0419 269.1078 14.43276640423605
IRIDIUM 152             
1 43479U 18047D   26157.56678597  .00000047  00000+0  98434-5 0  9994
2 43479  86.3954  92.7724 0002373  84.4621 275.6845 14.34217770420969
IRIDIUM 147             
1 43480U 18047E   26158.06150764 -.00000001  00000+0 -74789-5 0  9992
2 43480  86.3957  92.5705 0002039  84.7713 275.3716 14.34216854421030
IRIDIUM 110             
1 43481U 18047F   26157.57947135  .00000041  00000+0  75073-5 0  9993
2 43481  86.3957  92.8635 0002582  87.4635 272.6856 14.34217775420950
IRIDIUM 162             
1 43482U 18047G   26158.10972355  .00000347  00000+0  97200-4 0  9990
2 43482  86.4478  92.5756 0002357  83.4962 276.6508 14.43275965423675
IRIDIUM 160             
1 43569U 18061A   26158.01368610  .00000053  00000+0  12024-4 0  9990
2 43569  86.3969  61.0508 0002272  86.6981 273.4475 14.34217921411913
IRIDIUM 166             
1 43570U 18061B   26157.96928759  .00000019  00000+0 -15615-6 0  9995
2 43570  86.3964  61.0196 0001966  83.7859 276.3560 14.34217648411939
IRIDIUM 158             
1 43571U 18061C   26158.00734330  .00000099  00000+0  28381-4 0  9991
2 43571  86.3966  61.0142 0002296  83.1388 277.0069 14.34217101411904
IRIDIUM 165             
1 43572U 18061D   26157.96293896  .00000239  00000+0  78380-4 0  9993
2 43572  86.3974  61.0781 0001980  87.4622 272.6801 14.34214543411924
IRIDIUM 155             
1 43573U 18061E   26157.64581588  .00000036  00000+0  58201-5 0  9993
2 43573  86.3963  61.0804 0002187  81.3669 278.7774 14.34217719411848
IRIDIUM 154             
1 43574U 18061F   26157.97563022  .00000076  00000+0  20074-4 0  9993
2 43574  86.3968  61.0761 0002038  86.3871 273.7558 14.34217708411945
